[{"OBJECT_NAME":"STARLINK-34733","OBJECT_ID":"2025-263C","EPOCH":"2026-03-09T04:07:59.232576","MEAN_MOTION":15.27575434,"ECCENTRICITY":0.0001439,"INCLINATION":43.0038,"RA_OF_ASC_NODE":353.2895,"ARG_OF_PERICENTER":252.0512,"MEAN_ANOMALY":108.0183,"EPHEMERIS_TYPE":0,"CLASSIFICATION_TYPE":"U","NORAD_CAT_ID":66487,"ELEMENT_SET_NO":999,"REV_AT_EPOCH":1882,"BSTAR":0.001405514,"MEAN_MOTION_DOT":0.00038612,"MEAN_MOTION_DDOT":0},{"OBJECT_NAME":"OKEAN-1","OBJECT_ID":"1988-056A","EPOCH":"2026-03-09T21:19:04.260000","MEAN_MOTION":15.31672069,"ECCENTRICITY":0.00129431,"INCLINATION":82.4671,"RA_OF_ASC_NODE":262.7586,"ARG_OF_PERICENTER":168.0696,"MEAN_ANOMALY":192.0855,"EPHEMERIS_TYPE":0,"CLASSIFICATION_TYPE":"U","NORAD_CAT_ID":19274,"ELEMENT_SET_NO":999,"REV_AT_EPOCH":3511,"BSTAR":0.00038371192,"MEAN_MOTION_DOT":0.00011798,"MEAN_MOTION_DDOT":0}]
